ONEWEB-0118             
1 47264U 20100G   24019.47795127  .00000249  00000+0  65649-3 0  9991
2 47264  87.9026 165.6609 0001031  79.2527 280.8718 13.12442905149332
ONEWEB-0119             
1 47265U 20100H   24019.43029287 -.00000445  00000+0 -12728-2 0  9994
2 47265  87.9023 165.7087 0001610  98.6653 261.4658 13.12442915149305
ONEWEB-0120             
1 47266U 20100J   24019.45970244  .00000397  00000+0  10695-2 0  9990
2 47266  87.9025 165.6937 0001394  94.9470 265.1818 13.12444525149337
ONEWEB-0121             
1 47267U 20100K   24019.44140984 -.00000499  00000+0 -14212-2 0  9994
2 47267  87.9020 165.6928 0001614 104.3243 255.8065 13.12444651149242
ONEWEB-0122             
1 47268U 20100L   24019.43650513 -.00000287  00000+0 -83298-3 0  9994
2 47268  87.9020 165.6980 0001549  95.0423 265.0883 13.12442887149154
ONEWEB-0123             
1 47269U 20100M   24019.43188009 -.00000397  00000+0 -11385-2 0  9990
2 47269  87.9025 165.7075 0001498  98.8403 261.2895 13.12442375149296
ONEWEB-0124             
1 47270U 20100N   24019.42076457 -.00000236  00000+0 -69232-3 0  9991
2 47270  87.9024 165.7053 0001776 105.3756 254.7569 13.12440860149176
ONEWEB-0125             
1 47271U 20100P   24019.39535995  .00000491  00000+0  13294-2 0  9992
2 47271  87.9026 165.6681 0001212 114.3164 245.8091 13.12443187149236
